GLOBALSTAR M068         
1 32266U 07048D   25350.26234686 -.00000078  00000+0  14404-3 0  9991
2 32266  51.9878 107.2231 0001686 148.3221 228.1135 12.62835497840569
GLOBALSTAR M079         
1 37188U 10054A   25350.23781501 -.00000097  00000+0  39846-4 0  9999
2 37188  52.0059 305.5956 0000604  23.9516 114.0164 12.62269231699442
GLOBALSTAR M074         
1 37189U 10054B   25350.34947240 -.00000102  00000+0  86649-5 0  9997
2 37189  52.0034 304.5501 0000692  54.2918 110.9504 12.62264106700061
GLOBALSTAR M076         
1 37190U 10054C   25350.29686019 -.00000095  00000+0  51655-4 0  9996
2 37190  52.0046 304.8989 0000771  41.6073 123.3379 12.62268157699772
GLOBALSTAR M077         
1 37191U 10054D   25350.25146969 -.00000093  00000+0 -26634-3 0  9995
2 37191  51.9986 283.9756 0001138  27.7298 123.3206 11.68176615699765
GLOBALSTAR M075         
1 37192U 10054E   25350.29728181 -.00000090  00000+0  74487-4 0  9998
2 37192  51.9971 347.0509 0000309  75.2643  33.2490 12.62270527698843
GLOBALSTAR M073         
1 37193U 10054F   25350.14675225 -.00000093  00000+0  62342-4 0  9993
2 37193  52.0069 261.4716 0000868  46.8096  95.1045 12.62267931700818
GLOBALSTAR M083         
1 37739U 11033A   25350.08537177 -.00000070  00000+0  18845-3 0  9996
2 37739  51.9838 210.1371 0000954  67.5423  97.2888 12.62265722669823
GLOBALSTAR M088         
1 37740U 11033B   25350.34545861 -.00000114  00000+0 -57452-4 0  9994
2 37740  52.0204 115.3270 0000970 115.7250 270.8435 12.62271048665405
GLOBALSTAR M091         
1 37741U 11033C   25350.19779774 -.00000081  00000+0  12760-3 0  9994
2 37741  52.0001  79.0138 0000641 133.2118 241.2639 12.62268269666177
GLOBALSTAR M085         
1 37742U 11033D   25350.27753737 -.00000098  00000+0  33451-4 0  9994
2 37742  52.0144  29.9031 0000238 158.4122 279.3034 12.62267345666690
GLOBALSTAR M081         
1 37743U 11033E   25350.36875144 -.00000091  00000+0  70747-4 0  9994
2 37743  51.9979  32.2685 0000243 103.9065 269.1608 12.62270931666851
GLOBALSTAR M089         
1 37744U 11033F   25350.24990191 -.00000083  00000+0  11509-3 0  9993
2 37744  51.9952 346.8244 0000594  73.1039 300.0905 12.62262360667680
GLOBALSTAR M084         
1 38040U 11080A   25350.05578934 -.00000076  00000+0  15553-3 0  9996
2 38040  51.9988 214.8015 0001315  74.9335  74.7217 12.62266638645633
GLOBALSTAR M080         
1 38041U 11080B   25350.34869876 -.00000075  00000+0  15956-3 0  9993
2 38041  52.0038 215.5646 0000702  98.7458  72.5384 12.62264885645799
GLOBALSTAR M082         
1 38042U 11080C   25350.28498997 -.00000078  00000+0  14454-3 0  9994
2 38042  52.0046 171.2391 0000854 105.5580  65.7271 12.62266304646490
GLOBALSTAR M092         
1 38043U 11080D   25350.17430485 -.00000092  00000+0  68300-4 0  9997
2 38043  52.0084 261.9639 0000814  63.3262  84.3501 12.62268383644938
GLOBALSTAR M090         
1 38044U 11080E   25350.23230358 -.00000083  00000+0  11755-3 0  9993
2 38044  52.0094 165.2965 0000930  89.3157  81.3471 12.62265517646603
GLOBALSTAR M086         
1 38045U 11080F   25350.25668733 -.00000072  00000+0  17586-3 0  9994
2 38045  51.9869 165.4500 0001432  43.5726 127.8026 12.62281237646554
GLOBALSTAR M097         
1 39072U 13005A   25350.24714992 -.00000124  00000+0 -11050-3 0  9991
2 39072  52.0053  80.2200 0000554 110.8049 249.2877 12.62267732593809
GLOBALSTAR M093         
1 39073U 13005B   25350.22105597 -.00000113  00000+0 -53828-4 0  9993
2 39073  52.0115  73.5779 0000295 113.9287 246.1611 12.62271090593753
GLOBALSTAR M094         
1 39074U 13005C   25350.30010133 -.00000094  00000+0  57226-4 0  9997
2 39074  51.9978 347.6369 0000234  16.9991 343.0884 12.62265391595372
GLOBALSTAR M096         
1 39075U 13005D   25350.31315033 -.00000097  00000+0  35891-4 0  9993
2 39075  52.0090  36.2524 0000193 144.9473 215.1406 12.62269410594290
GLOBALSTAR M078         
1 39076U 13005E   25350.28715681 -.00000103  00000+0  35812-5 0  9995
2 39076  51.9861 120.5957 0000902 170.1524 189.9360 12.62272533592912
GLOBALSTAR M095         
1 39077U 13005F   25350.31340540 -.00000111  00000+0 -38599-4 0  9992
2 39077  52.0068 117.8596 0000571 131.8458 228.2458 12.62267300592779
GLOBALSTAR M087         
1 52888U 22064A   25350.08889516 -.00000086  00000+0  99118-4 0  9991
2 52888  51.9997 259.8874 0000656  47.2265 312.8657 12.62261436168010
